[{"OBJECT_NAME":"SHIYAN-6 01 (SY-6 01)","OBJECT_ID":"2018-094B","EPOCH":"2026-03-09T23:04:36.967872","MEAN_MOTION":15.28649156,"ECCENTRICITY":0.00144834,"INCLINATION":97.3669,"RA_OF_ASC_NODE":84.0964,"ARG_OF_PERICENTER":135.6758,"MEAN_ANOMALY":224.5644,"EPHEMERIS_TYPE":0,"CLASSIFICATION_TYPE":"U","NORAD_CAT_ID":43711,"ELEMENT_SET_NO":999,"REV_AT_EPOCH":40632,"BSTAR":0.00024768444,"MEAN_MOTION_DOT":6.847e-5,"MEAN_MOTION_DDOT":0},{"OBJECT_NAME":"STARLINK-35259","OBJECT_ID":"2025-243W","EPOCH":"2026-03-09T17:19:29.595648","MEAN_MOTION":15.3019596,"ECCENTRICITY":8.829e-5,"INCLINATION":53.1567,"RA_OF_ASC_NODE":245.4605,"ARG_OF_PERICENTER":71.9522,"MEAN_ANOMALY":288.1575,"EPHEMERIS_TYPE":0,"CLASSIFICATION_TYPE":"U","NORAD_CAT_ID":66198,"ELEMENT_SET_NO":999,"REV_AT_EPOCH":2065,"BSTAR":0.0012245837,"MEAN_MOTION_DOT":0.00036081,"MEAN_MOTION_DDOT":0}]
